OBJECT_NAME,OBJECT_ID,EPOCH,MEAN_MOTION,ECCENTRICITY,INCLINATION,RA_OF_ASC_NODE,ARG_OF_PERICENTER,MEAN_ANOMALY,EPHEMERIS_TYPE,CLASSIFICATION_TYPE,NORAD_CAT_ID,ELEMENT_SET_NO,REV_AT_EPOCH,BSTAR,MEAN_MOTION_DOT,MEAN_MOTION_DDOT
COSMOS 2058,1990-010A,2026-07-20T06:56:13.069824,15.12175413,.00083665,82.4675,276.7078,228.9356,131.1152,0,U,20465,999,96227,.11848245E-3,.2074E-4,0
SL-14 R/B,1990-010B,2026-07-20T13:14:51.116064,14.83664926,.0018706,82.5039,142.6127,218.4696,141.5187,0,U,20466,999,94818,.21900354E-4,.205E-5,0
SL-14 R/B,1990-018B,2026-07-20T05:24:13.659840,14.82235969,.00166549,82.5214,99.2288,21.0049,339.1845,0,U,20511,999,94221,.22367064E-4,.202E-5,0
HST,1990-037B,2026-07-20T09:20:08.583936,15.31091502,.00021135,28.4721,213.5880,153.5255,206.5449,0,U,20580,999,79366,.98758231E-4,.3283E-4,0
SL-16 R/B,1990-046B,2026-07-20T10:56:22.793568,14.15028111,.0012259,70.9995,19.0742,105.0141,255.2339,0,U,20625,999,86717,.16953712E-3,.281E-5,0
COSMOS 2084,1990-055A,2026-07-20T09:21:17.444736,15.06233917,.00087302,62.7875,242.7544,322.9314,37.1183,0,U,20663,999,95630,.67375614E-4,.79E-5,0
SL-6 R/B(2),1990-055D,2026-07-20T07:00:13.835520,15.04101040,.004593,62.7809,162.7149,9.6961,350.5014,0,U,20666,999,95813,.95514417E-4,.1149E-4,0
SL-8 R/B,1990-078B,2026-07-20T07:12:29.841696,14.93656717,.03429915,82.9032,131.6887,286.1364,70.2360,0,U,20775,999,82906,.20681808E-3,.7303E-4,0
SL-8 R/B,1991-006B,2026-07-20T10:14:18.117312,13.77509961,.00231266,82.9403,71.3029,26.3804,150.7771,0,U,21088,999,78234,.56854619E-4,.72E-6,0
OKEAN-3,1991-039A,2026-07-20T10:33:27.919872,15.05452780,.0012899,82.5150,208.1315,234.3620,125.6406,0,U,21397,999,88500,.11472622E-3,.1678E-4,0
COSMOS 2151,1991-042A,2026-07-20T12:52:36.659424,15.00522347,.00114661,82.4983,315.4966,336.7695,23.3010,0,U,21422,999,88311,.78638107E-4,.1019E-4,0
SL-14 R/B,1991-042B,2026-07-20T10:35:29.713632,14.81919731,.00174435,82.4929,95.7117,159.9141,200.2763,0,U,21423,999,87273,.19767638E-4,.18E-5,0
ERS-1,1991-050A,2026-07-20T01:00:06.419808,14.39535662,.00322066,98.7796,222.5421,167.5134,192.6859,0,U,21574,999,83477,.73420401E-4,.184E-5,0
ARIANE 40 R/B,1991-050F,2026-07-20T09:39:46.845792,14.42973526,.00039133,98.1859,248.5227,49.6787,310.4745,0,U,21610,999,83813,.45668346E-4,.111E-5,0
INTERCOSMOS 25,1991-086A,2026-07-20T03:04:55.850016,12.12243073,.14848177,82.6000,229.8758,191.2811,165.1215,0,U,21819,999,51273,.10285997E-3,.538E-5,0
SL-8 R/B,1992-008B,2026-07-20T09:03:45.674208,13.75984679,.00359076,82.9278,169.1108,122.5558,39.3784,0,U,21876,999,72766,.10608007E-3,.119E-5,0
SL-8 R/B,1992-020B,2026-07-20T09:23:48.365664,13.75549842,.00278038,82.9276,55.1890,288.3817,246.1428,0,U,21938,999,71937,-.28011835E-4,-.12E-6,0
USA 81,1992-023A,2026-07-20T12:37:54.633792,14.32405784,.00017482,85.0047,54.7597,64.8666,295.2708,0,U,21949,999,11380,.25448317E-4,.89E-6,0
COSMOS 2219,1992-076A,2026-07-20T03:41:57.669216,14.14106778,.00185544,71.0608,101.1578,350.0883,9.9871,0,U,22219,999,73710,-.1209039E-3,-.278E-5,0
SL-16 R/B,1992-076B,2026-07-20T08:30:22.820256,14.16877815,.00150389,70.9998,268.9136,255.6231,174.8504,0,U,22220,999,74062,-.59944222E-4,-.168E-5,0
COSMOS 2221,1992-080A,2026-07-20T13:40:08.106528,14.96612982,.00159128,82.5051,151.7818,103.7953,256.5042,0,U,22236,999,80066,.76653033E-4,.902E-5,0
SL-16 R/B,1992-093B,2026-07-20T02:29:19.946976,14.15463890,.00021637,71.0213,86.2912,120.4085,239.7252,0,U,22285,999,73189,-.10075009E-3,-.244E-5,0
COSMOS 2228,1992-094A,2026-07-20T13:28:08.233824,14.97684803,.00167134,82.5185,110.0754,209.8524,150.1747,0,U,22286,999,79594,.78720335E-4,.951E-5,0
SL-16 R/B,1993-016B,2026-07-20T08:52:45.791616,14.15315791,.00085865,71.0087,296.5121,128.7120,231.4772,0,U,22566,999,72094,.1690124E-3,.282E-5,0
COSMOS 2242,1993-024A,2026-07-20T08:03:04.345344,14.96993725,.00149995,82.5202,139.8293,214.0073,146.0190,0,U,22626,999,80023,.75651472E-4,.898E-5,0
SL-16 R/B,1993-059B,2026-07-20T10:49:16.806144,14.17250191,.0016961,70.9902,91.1575,0.7269,359.3876,0,U,22803,999,69834,.11744506E-3,.19E-5,0
ARIANE 40 R/B,1993-061H,2026-07-20T03:56:23.534592,14.32919655,.00095995,98.4802,267.3336,249.2416,110.7740,0,U,22830,999,71307,.3926982E-4,.64E-6,0
COSMOS 2278,1994-023A,2026-07-20T09:58:54.602400,14.14394684,.00093575,71.0516,257.4028,197.7878,162.2919,0,U,23087,999,66357,.11807799E-3,.179E-5,0
SL-16 R/B,1994-023B,2026-07-20T14:45:26.850240,14.15027415,.0001271,70.9995,151.7301,106.2778,253.8484,0,U,23088,999,66489,.19194038E-3,.324E-5,0
SL-16 R/B,1994-074B,2026-07-20T08:16:22.349568,14.79526813,.00075209,97.6985,226.6826,139.3222,231.4206,0,U,23343,999,70686,.3271689E-4,.196E-5,0
