COSMOS 2058             
1 20465U 90010A   26201.28904016  .00002074  00000+0  11848-3 0  9995
2 20465  82.4675 276.7078 0008366 228.9356 131.1152 15.12175413962276
SL-14 R/B               
1 20466U 90010B   26201.55198051  .00000205  00000+0  21900-4 0  9995
2 20466  82.5039 142.6127 0018706 218.4696 141.5187 14.83664926948184
SL-14 R/B               
1 20511U 90018B   26201.22515810  .00000202  00000+0  22367-4 0  9999
2 20511  82.5214  99.2288 0016654  21.0049 339.1845 14.82235969942219
HST                     
1 20580U 90037B   26201.38898824  .00003283  00000+0  98758-4 0  9991
2 20580  28.4721 213.5880 0002113 153.5255 206.5449 15.31091502793669
SL-16 R/B               
1 20625U 90046B   26201.45581937  .00000281  00000+0  16954-3 0  9995
2 20625  70.9995  19.0742 0012259 105.0141 255.2339 14.15028111867172
COSMOS 2084             
1 20663U 90055A   26201.38978524  .00000790  00000+0  67376-4 0  9991
2 20663  62.7875 242.7544 0008730 322.9314  37.1183 15.06233917956307
SL-6 R/B(2)             
1 20666U 90055D   26201.29182680  .00001149  00000+0  95514-4 0  9998
2 20666  62.7809 162.7149 0045930   9.6961 350.5014 15.04101040958136
SL-8 R/B                
1 20775U 90078B   26201.30034539  .00007303  00000+0  20682-3 0  9996
2 20775  82.9032 131.6887 0342991 286.1364  70.2360 14.93656717829061
SL-8 R/B                
1 21088U 91006B   26201.42659858  .00000072  00000+0  56855-4 0  9994
2 21088  82.9403  71.3029 0023126  26.3804 150.7771 13.77509961782346
OKEAN-3                 
1 21397U 91039A   26201.43990648  .00001678  00000+0  11473-3 0  9998
2 21397  82.5150 208.1315 0012899 234.3620 125.6406 15.05452780885006
COSMOS 2151             
1 21422U 91042A   26201.53653541  .00001019  00000+0  78638-4 0  9996
2 21422  82.4983 315.4966 0011466 336.7695  23.3010 15.00522347883117
SL-14 R/B               
1 21423U 91042B   26201.44131613  .00000180  00000+0  19768-4 0  9995
2 21423  82.4929  95.7117 0017443 159.9141 200.2763 14.81919731872738
ERS-1                   
1 21574U 91050A   26201.04174097  .00000184  00000+0  73420-4 0  9999
2 21574  98.7796 222.5421 0032206 167.5134 192.6859 14.39535662834778
ARIANE 40 R/B           
1 21610U 91050F   26201.40262553  .00000111  00000+0  45668-4 0  9998
2 21610  98.1859 248.5227 0003913  49.6787 310.4745 14.42973526838139
INTERCOSMOS 25          
1 21819U 91086A   26201.12842419  .00000538  00000+0  10286-3 0  9992
2 21819  82.6000 229.8758 1484817 191.2811 165.1215 12.12243073512730
SL-8 R/B                
1 21876U 92008B   26201.37761197  .00000119  00000+0  10608-3 0  9993
2 21876  82.9278 169.1108 0035907 122.5558  39.3784 13.75984679727661
SL-8 R/B                
1 21938U 92020B   26201.39153201 -.00000012  00000+0 -28012-4 0  9992
2 21938  82.9276  55.1890 0027803 288.3817 246.1428 13.75549842719376
USA 81                  
1 21949U 92023A   26201.52632678  .00000089  00000+0  25448-4 0  9994
2 21949  85.0047  54.7597 0001748  64.8666 295.2708 14.32405784113808
COSMOS 2219             
1 22219U 92076A   26201.15413969 -.00000278  00000+0 -12090-3 0  9992
2 22219  71.0608 101.1578 0018554 350.0883   9.9871 14.14106778737104
SL-16 R/B               
1 22220U 92076B   26201.35443079 -.00000168  00000+0 -59944-4 0  9999
2 22220  70.9998 268.9136 0015038 255.6231 174.8504 14.16877815740624
COSMOS 2221             
1 22236U 92080A   26201.56953827  .00000902  00000+0  76653-4 0  9991
2 22236  82.5051 151.7818 0015912 103.7953 256.5042 14.96612982800667
SL-16 R/B               
1 22285U 92093B   26201.10370309 -.00000244  00000+0 -10075-3 0  9993
2 22285  71.0213  86.2912 0002163 120.4085 239.7252 14.15463890731894
COSMOS 2228             
1 22286U 92094A   26201.56120641  .00000951  00000+0  78720-4 0  9992
2 22286  82.5185 110.0754 0016713 209.8524 150.1747 14.97684803795946
SL-16 R/B               
1 22566U 93016B   26201.36997444  .00000282  00000+0  16901-3 0  9998
2 22566  71.0087 296.5121 0008586 128.7120 231.4772 14.15315791720945
COSMOS 2242             
1 22626U 93024A   26201.33546696  .00000898  00000+0  75651-4 0  9991
2 22626  82.5202 139.8293 0014999 214.0073 146.0190 14.96993725800232
SL-16 R/B               
1 22803U 93059B   26201.45088896  .00000190  00000+0  11745-3 0  9990
2 22803  70.9902  91.1575 0016961   0.7269 359.3876 14.17250191698341
ARIANE 40 R/B           
1 22830U 93061H   26201.16416128  .00000064  00000+0  39270-4 0  9998
2 22830  98.4802 267.3336 0009599 249.2416 110.7740 14.32919655713071
COSMOS 2278             
1 23087U 94023A   26201.41590975  .00000179  00000+0  11808-3 0  9996
2 23087  71.0516 257.4028 0009357 197.7878 162.2919 14.14394684663572
SL-16 R/B               
1 23088U 94023B   26201.61489410  .00000324  00000+0  19194-3 0  9998
2 23088  70.9995 151.7301 0001271 106.2778 253.8484 14.15027415664899
SL-16 R/B               
1 23343U 94074B   26201.34470312  .00000196  00000+0  32717-4 0  9993
2 23343  97.6985 226.6826 0007520 139.3222 231.4206 14.79526813706860
